     3.04           N: GNSS NAV DATA    M: MIXED            RINEX VERSION / TYPE
ssrcrin-15.6.1x                         20250101 020000 UTC PGM / RUN BY / DATE 
    18                                                      LEAP SECONDS        
                                                            END OF HEADER       
E11 2025 01 01 01 40 00-6.158411270007E-05-2.197424464612E-10-3.469446951954E-18
     6.100000000000E+01 1.623750000000E+02 2.855118927163E-09 2.610839862360E+00
     7.588416337967E-06 2.614741679281E-04 3.986060619354E-07 5.440602390289E+03
     2.652000000000E+05-7.636845111847E-08-1.774971610395E+00 9.313225746155E-09
     9.965681206166E-01 3.483437500000E+02 1.049793802640E-01-5.685951128402E-09
     2.935836575092E-10 5.170000000000E+02 2.347000000000E+03
     3.120000000000E+00 0.000000000000E+00-1.699663698673E-08-1.746229827404E-08
     2.664350000000E+05
C05 2025 01 01 02 00 00 1.723313471302E-04 2.871036741681E-11 0.000000000000E+00
     1.000000000000E+00 7.528593750000E+02-6.234545408127E-09-1.983931728914E+00
     2.477690577507E-05 1.276030903682E-03 3.471970558167E-06 6.493441692352E+03
     2.664000000000E+05 1.378357410431E-07-2.094843227360E+00 9.313225746155E-08
     7.587890850111E-02-1.097187500000E+02-6.013008774523E-01 7.461739382825E-09
    -5.600233272195E-10 0.000000000000E+00 9.910000000000E+02 0.000000000000E+00
     2.000000000000E+00 0.000000000000E+00 2.000000000000E-10-9.500000000000E-09
     2.664276000000E+05 0.000000000000E+00
C60 2025 01 01 02 00 00 8.419156074524E-07-1.465494392505E-13 0.000000000000E+00
     1.000000000000E+00 8.428437500000E+02-4.177674016892E-09-1.048447985301E+00
     2.758717164397E-05 3.989614779130E-04 3.756489604712E-06 6.493431776047E+03
     2.664000000000E+05-5.355104804039E-08-2.100385068257E+00 1.979060471058E-07
     1.017738180766E-01-1.205468750000E+02-1.159103053226E+00 5.274148260874E-09
    -6.128826718805E-10 0.000000000000E+00 9.910000000000E+02 0.000000000000E+00
     2.000000000000E+00 0.000000000000E+00 4.800000000000E-08 4.800000000000E-08
     2.664276000000E+05 1.000000000000E+00
C02 2025 01 01 02 00 00 6.970915710554E-04-2.309619162588E-11 0.000000000000E+00
     1.000000000000E+00 8.345937500000E+02-9.503610149224E-09-2.687017605526E+00
     2.727424725890E-05 8.249946404248E-04-6.268732249737E-06 6.493372402191E+03
     2.664000000000E+05 1.080334186554E-07-1.900345543305E+00 2.020969986916E-07
     6.914560275190E-02 1.848750000000E+02 3.482110216896E-01 1.058151219103E-08
    -4.518045337580E-10 0.000000000000E+00 9.910000000000E+02 0.000000000000E+00
     2.000000000000E+00 0.000000000000E+00 1.700000000000E-09-1.380000000000E-08
     2.664276000000E+05 0.000000000000E+00
S21 2025 01 01 01 59 28 0.000000000000E+00 0.000000000000E+00 2.664600000000E+05
     4.200468400000E+04 0.000000000000E+00 0.000000000000E+00 6.300000000000E+01
    -3.674932960000E+03 0.000000000000E+00 0.000000000000E+00 3.276700000000E+04
     0.000000000000E+00 0.000000000000E+00 0.000000000000E+00 1.480000000000E+02
E05 2025 01 01 01 50 00 4.815169144422E-03 3.325340003357E-12 0.000000000000E+00
     6.200000000000E+01-1.293437500000E+02 2.668325432179E-09 2.676873825191E+00
    -6.105750799179E-06 2.039794344455E-05 1.167505979538E-05 5.440620191574E+03
     2.658000000000E+05 4.656612873077E-08 3.134242648873E-01 2.235174179077E-08
     9.635893681764E-01 9.018750000000E+01-2.739802042198E+00-5.207002606845E-09
     2.971552348511E-10 5.170000000000E+02 2.347000000000E+03
     3.120000000000E+00 0.000000000000E+00-2.328306436539E-10 9.313225746155E-10
     2.664650000000E+05
E11 2025 01 01 01 50 00-6.171601125970E-05-2.197424464612E-10-3.469446951954E-18
     6.200000000000E+01 1.624375000000E+02 2.854761769429E-09 2.685226480313E+00
     7.582828402519E-06 2.614448312670E-04 3.986060619354E-07 5.440602445602E+03
     2.658000000000E+05-8.195638656616E-08-1.774975004365E+00 1.862645149231E-09
     9.965682566680E-01 3.485937500000E+02 1.049784396077E-01-5.692379967617E-09
     2.953694461802E-10 5.170000000000E+02 2.347000000000E+03
     3.120000000000E+00 0.000000000000E+00-1.699663698673E-08-1.746229827404E-08
     2.664650000000E+05
S23 2025 01 01 02 01 04 0.000000000000E+00 0.000000000000E+00 2.664790000000E+05
     3.866796400000E+04 0.000000000000E+00 0.000000000000E+00 6.300000000000E+01
     1.681330800000E+04 0.000000000000E+00 0.000000000000E+00 3.276700000000E+04
     0.000000000000E+00 0.000000000000E+00 0.000000000000E+00 4.400000000000E+01
E11 2025 01 01 01 40 00-6.158382166177E-05-2.197424464612E-10-3.469446951954E-18
     6.100000000000E+01 1.623750000000E+02 2.855118927163E-09 2.610839862360E+00
     7.588416337967E-06 2.614741679281E-04 3.986060619354E-07 5.440602390289E+03
     2.652000000000E+05-7.636845111847E-08-1.774971610395E+00 9.313225746155E-09
     9.965681206166E-01 3.483437500000E+02 1.049793802640E-01-5.685951128402E-09
     2.935836575092E-10 2.580000000000E+02 2.347000000000E+03
     3.120000000000E+00 0.000000000000E+00-1.699663698673E-08 0.000000000000E+00
     2.664900000000E+05
E36 2025 01 01 01 50 00-3.327904269099E-04-5.286437954055E-12 0.000000000000E+00
     6.200000000000E+01 1.559687500000E+02 2.789759061806E-09 3.044265715875E+00
     7.364898920059E-06 3.681083908305E-04-2.719461917877E-07 5.440608907700E+03
     2.658000000000E+05-6.891787052155E-08-1.775648463091E+00 3.539025783539E-08
     9.996693211541E-01 3.636562500000E+02-1.007705598297E+00-5.669521872629E-09
     3.253706958526E-10 5.170000000000E+02 2.347000000000E+03
     3.120000000000E+00 0.000000000000E+00 1.629814505577E-09 3.026798367500E-09
     2.664950000000E+05
E36 2025 01 01 01 50 00-3.327921149321E-04-5.272227099340E-12 0.000000000000E+00
     6.200000000000E+01 1.559687500000E+02 2.789759061806E-09 3.044265715875E+00
     7.364898920059E-06 3.681083908305E-04-2.719461917877E-07 5.440608907700E+03
     2.658000000000E+05-6.891787052155E-08-1.775648463091E+00 3.539025783539E-08
     9.996693211541E-01 3.636562500000E+02-1.007705598297E+00-5.669521872629E-09
     3.253706958526E-10 2.580000000000E+02 2.347000000000E+03
     3.120000000000E+00 0.000000000000E+00 1.629814505577E-09 0.000000000000E+00
     2.665400000000E+05
E05 2025 01 01 01 50 00 4.815167689230E-03 3.325340003357E-12 0.000000000000E+00
     6.200000000000E+01-1.293437500000E+02 2.668325432179E-09 2.676873825191E+00
    -6.105750799179E-06 2.039794344455E-05 1.167505979538E-05 5.440620191574E+03
     2.658000000000E+05 4.656612873077E-08 3.134242648873E-01 2.235174179077E-08
     9.635893681764E-01 9.018750000000E+01-2.739802042198E+00-5.207002606845E-09
     2.971552348511E-10 2.580000000000E+02 2.347000000000E+03
     3.120000000000E+00 0.000000000000E+00-2.328306436539E-10 0.000000000000E+00
     2.665400000000E+05
E11 2025 01 01 01 50 00-6.171566201374E-05-2.197424464612E-10-3.469446951954E-18
     6.200000000000E+01 1.624375000000E+02 2.854761769429E-09 2.685226480313E+00
     7.582828402519E-06 2.614448312670E-04 3.986060619354E-07 5.440602445602E+03
     2.658000000000E+05-8.195638656616E-08-1.774975004365E+00 1.862645149231E-09
     9.965682566680E-01 3.485937500000E+02 1.049784396077E-01-5.692379967617E-09
     2.953694461802E-10 2.580000000000E+02 2.347000000000E+03
     3.120000000000E+00 0.000000000000E+00-1.699663698673E-08 0.000000000000E+00
     2.665400000000E+05
S21 2025 01 01 02 02 24 0.000000000000E+00 0.000000000000E+00 2.665450000000E+05
     4.200468400000E+04 0.000000000000E+00 0.000000000000E+00 6.300000000000E+01
    -3.674932960000E+03 0.000000000000E+00 0.000000000000E+00 3.276700000000E+04
     0.000000000000E+00 0.000000000000E+00 0.000000000000E+00 1.490000000000E+02
S44 2025 01 01 02 02 40 8.414499461651E-07 0.000000000000E+00 2.665520000000E+05
     7.330773760000E+03 1.966875000000E-03-7.500000000000E-08 6.300000000000E+01
     4.151438312000E+04-9.143750000000E-04-2.000000000000E-07 3.276700000000E+04
     1.565124000000E+02-1.399680000000E-01-4.375000000000E-07 6.000000000000E+01
E09 2025 01 01 01 50 00-7.211774354801E-04-1.419664386049E-11 0.000000000000E+00
     6.200000000000E+01-1.497187500000E+02 2.589393572922E-09 4.376859455707E-01
    -6.956979632378E-06 1.952070742846E-04 1.143105328083E-05 5.440615882874E+03
     2.658000000000E+05-4.097819328308E-08 3.143080897707E-01 5.029141902924E-08
     9.694423717489E-01 1.005937500000E+02 2.994828560116E-01-5.085568977218E-09
     3.025126008641E-10 5.170000000000E+02 2.347000000000E+03
     3.120000000000E+00 0.000000000000E+00-2.793967723846E-09-2.095475792885E-09
     2.665550000000E+05
E34 2025 01 01 01 50 00-1.550084562041E-04-2.174260771426E-12 0.000000000000E+00
     6.200000000000E+01 1.433437500000E+02 2.766543809083E-09-2.866552049982E+00
     6.847083568573E-06 1.888063270599E-04-2.272427082062E-07 5.440612091064E+03
     2.658000000000E+05 5.587935447693E-08-1.777512554270E+00 9.313225746155E-08
     9.994951183321E-01 3.627500000000E+02-2.164261060149E+00-5.739881946265E-09
     2.735828243942E-10 5.170000000000E+02 2.347000000000E+03
     3.120000000000E+00 0.000000000000E+00 4.656612873077E-10 2.095475792885E-09
     2.665550000000E+05
S36 2025 01 01 02 02 40 0.000000000000E+00 0.000000000000E+00 2.665720000000E+05
     4.200368800000E+04 0.000000000000E+00 0.000000000000E+00 6.300000000000E+01
     3.674846960000E+03 0.000000000000E+00 0.000000000000E+00 3.276700000000E+04
     0.000000000000E+00 0.000000000000E+00 0.000000000000E+00 2.010000000000E+02
